GLOBALSTAR M067         
1 32263U 07048A   24116.19646049 -.00000020  00000+0  57717-3 0  9990
2 32263  51.9712 178.9796 0001179 164.1504 212.5581 12.40642943757849
GLOBALSTAR M070         
1 32264U 07048B   24115.99640317 -.00000051  00000+0  29458-3 0  9995
2 32264  51.9759 322.4539 0000496  96.0372  51.0538 12.62290846761836
GLOBALSTAR M066         
1 32265U 07048C   24116.50138976 -.00000025  00000+0  44029-3 0  9999
2 32265  51.9661 182.9019 0000600 146.2558 317.9124 12.62261063764121
GLOBALSTAR M068         
1 32266U 07048D   24116.24262222 -.00000027  00000+0  42471-3 0  9994
2 32266  51.9862 136.2516 0000742 299.9865 140.7256 12.62786362765047
GLOBALSTAR M079         
1 37188U 10054A   24116.02592432 -.00000072  00000+0  17642-3 0  9990
2 37188  52.0053 332.7368 0001020  91.1775  59.6820 12.62268855624321
GLOBALSTAR M074         
1 37189U 10054B   24115.79951664 -.00000066  00000+0  21314-3 0  9994
2 37189  52.0033 332.8142 0000792  88.6684 352.1953 12.62267686624224
GLOBALSTAR M076         
1 37190U 10054C   24115.90957258 -.00000063  00000+0  22984-3 0  9995
2 37190  52.0043 332.6107 0001000 120.8011 341.4642 12.62277243623957
GLOBALSTAR M077         
1 37191U 10054D   24116.51523819 -.00000095  00000+0  51728-4 0  9990
2 37191  52.0067 287.5037 0000744 115.1895 279.5633 12.62272000625134
